[
    {
        "Altitude(m)": 558590.4525560201,
        "Argument of Periapsis(deg)": 0.026491964442854003,
        "Eccentricity": 0.0,
        "Inclination(deg)": 53.0,
        "Latitude(deg)": 47.40856558452597,
        "Longitude(deg)": -157.79546595137728,
        "Mean Anomaly(deg)": 113.09367147031038,
        "RAAN(deg)": 179.96057347411207,
        "Satellite Name": "Starlink Shell 1 796",
        "Satellite Number": 796,
        "Semi-Major Axis(m)": 6931778.249405717,
        "Time(s)": 760
    },
    {
        "Altitude(m)": 558523.6393072004,
        "Argument of Periapsis(deg)": 0.02684054292236524,
        "Eccentricity": 0.0,
        "Inclination(deg)": 53.0,
        "Latitude(deg)": 47.115366972053586,
        "Longitude(deg)": -157.02207244977492,
        "Mean Anomaly(deg)": 113.72050267386705,
        "RAAN(deg)": 179.9600547040346,
        "Satellite Name": "Starlink Shell 1 796",
        "Satellite Number": 796,
        "Semi-Major Axis(m)": 6931778.249405717,
        "Time(s)": 770
    },
    {
        "Altitude(m)": 558455.5955065672,
        "Argument of Periapsis(deg)": 0.027189121401876473,
        "Eccentricity": 0.0,
        "Inclination(deg)": 53.0,
        "Latitude(deg)": 46.816424126453725,
        "Longitude(deg)": -156.25765827678376,
        "Mean Anomaly(deg)": 114.34733387742378,
        "RAAN(deg)": 179.9595359339571,
        "Satellite Name": "Starlink Shell 1 796",
        "Satellite Number": 796,
        "Semi-Major Axis(m)": 6931778.249405717,
        "Time(s)": 780
    },
    {
        "Altitude(m)": 558386.3632366577,
        "Argument of Periapsis(deg)": 0.02753769988138771,
        "Eccentricity": 0.0,
        "Inclination(deg)": 53.0,
        "Latitude(deg)": 46.51185828478525,
        "Longitude(deg)": -155.50219964221372,
        "Mean Anomaly(deg)": 114.97416508098051,
        "RAAN(deg)": 179.95901716387965,
        "Satellite Name": "Starlink Shell 1 796",
        "Satellite Number": 796,
        "Semi-Major Axis(m)": 6931778.249405717,
        "Time(s)": 790
    },
    {
        "Altitude(m)": 558315.9853879889,
        "Argument of Periapsis(deg)": 0.02788627836089895,
        "Eccentricity": 0.0,
        "Inclination(deg)": 53.0,
        "Latitude(deg)": 46.2017896188457,
        "Longitude(deg)": -154.75566414591216,
        "Mean Anomaly(deg)": 115.60099628453719,
        "RAAN(deg)": 179.95849839380216,
        "Satellite Name": "Starlink Shell 1 796",
        "Satellite Number": 796,
        "Semi-Major Axis(m)": 6931778.249405717,
        "Time(s)": 800
    },
    {
        "Altitude(m)": 558244.5056377524,
        "Argument of Periapsis(deg)": 0.02823485684041019,
        "Eccentricity": 0.0,
        "Inclination(deg)": 53.0,
        "Latitude(deg)": 45.88633712326917,
        "Longitude(deg)": -154.0180108223779,
        "Mean Anomaly(deg)": 116.22782748809391,
        "RAAN(deg)": 179.95797962372473,
        "Satellite Name": "Starlink Shell 1 796",
        "Satellite Number": 796,
        "Semi-Major Axis(m)": 6931778.249405717,
        "Time(s)": 810
    },
    {
        "Altitude(m)": 558171.9684280999,
        "Argument of Periapsis(deg)": 0.028583435319921423,
        "Eccentricity": 0.0,
        "Inclination(deg)": 53.0,
        "Latitude(deg)": 45.56561851374114,
        "Longitude(deg)": -153.2891901769344,
        "Mean Anomaly(deg)": 116.85465869165061,
        "RAAN(deg)": 179.95746085364723,
        "Satellite Name": "Starlink Shell 1 796",
        "Satellite Number": 796,
        "Semi-Major Axis(m)": 6931778.249405717,
        "Time(s)": 820
    },
    {
        "Altitude(m)": 558098.4189440437,
        "Argument of Periapsis(deg)": 0.028932013799432665,
        "Eccentricity": 0.0,
        "Inclination(deg)": 53.0,
        "Latitude(deg)": 45.239750134986856,
        "Longitude(deg)": -152.56914572427158,
        "Mean Anomaly(deg)": 117.48148989520737,
        "RAAN(deg)": 179.95694208356977,
        "Satellite Name": "Starlink Shell 1 796",
        "Satellite Number": 796,
        "Semi-Major Axis(m)": 6931778.249405717,
        "Time(s)": 830
    },
    {
        "Altitude(m)": 558023.9030909458,
        "Argument of Periapsis(deg)": 0.029280592278943897,
        "Eccentricity": 0.0,
        "Inclination(deg)": 53.0,
        "Latitude(deg)": 44.90884687815859,
        "Longitude(deg)": -151.85781400182327,
        "Mean Anomaly(deg)": 118.10832109876408,
        "RAAN(deg)": 179.95642331349228,
        "Satellite Name": "Starlink Shell 1 796",
        "Satellite Number": 796,
        "Semi-Major Axis(m)": 6931778.249405717,
        "Time(s)": 840
    },
    {
        "Altitude(m)": 557948.4674716428,
        "Argument of Periapsis(deg)": 0.029629170758455132,
        "Eccentricity": 0.0,
        "Inclination(deg)": 53.0,
        "Latitude(deg)": 44.573022107231154,
        "Longitude(deg)": -151.15512456931765,
        "Mean Anomaly(deg)": 118.7351523023208,
        "RAAN(deg)": 179.9559045434148,
        "Satellite Name": "Starlink Shell 1 796",
        "Satellite Number": 796,
        "Semi-Major Axis(m)": 6931778.249405717,
        "Time(s)": 850
    },
    {
        "Altitude(m)": 557872.1593631773,
        "Argument of Periapsis(deg)": 0.02997774923796637,
        "Eccentricity": 0.0,
        "Inclination(deg)": 53.0,
        "Latitude(deg)": 44.232387594001686,
        "Longitude(deg)": -150.46100167417904,
        "Mean Anomaly(deg)": 119.36198350587746,
        "RAAN(deg)": 179.95538577333733,
        "Satellite Name": "Starlink Shell 1 796",
        "Satellite Number": 796,
        "Semi-Major Axis(m)": 6931778.249405717,
        "Time(s)": 860
    },
    {
        "Altitude(m)": 557795.0266931914,
        "Argument of Periapsis(deg)": 0.030326327717477602,
        "Eccentricity": 0.0,
        "Inclination(deg)": 53.0,
        "Latitude(deg)": 43.887053461267584,
        "Longitude(deg)": -149.77536337929425,
        "Mean Anomaly(deg)": 119.9888147094342,
        "RAAN(deg)": 179.9548670032599,
        "Satellite Name": "Starlink Shell 1 796",
        "Satellite Number": 796,
        "Semi-Major Axis(m)": 6931778.249405717,
        "Time(s)": 870
    },
    {
        "Altitude(m)": 557717.1180159523,
        "Argument of Periapsis(deg)": 0.030674906196988847,
        "Eccentricity": 0.0,
        "Inclination(deg)": 53.0,
        "Latitude(deg)": 43.53712813376622,
        "Longitude(deg)": -149.09812319519887,
        "Mean Anomaly(deg)": 120.61564591299091,
        "RAAN(deg)": 179.9543482331824,
        "Satellite Name": "Starlink Shell 1 796",
        "Satellite Number": 796,
        "Semi-Major Axis(m)": 6931778.249405717,
        "Time(s)": 880
    },
    {
        "Altitude(m)": 557638.4824880305,
        "Argument of Periapsis(deg)": 0.031023484676500086,
        "Eccentricity": 0.0,
        "Inclination(deg)": 53.0,
        "Latitude(deg)": 43.18271829644124,
        "Longitude(deg)": -148.4291900136007,
        "Mean Anomaly(deg)": 121.24247711654765,
        "RAAN(deg)": 179.9538294631049,
        "Satellite Name": "Starlink Shell 1 796",
        "Satellite Number": 796,
        "Semi-Major Axis(m)": 6931778.249405717,
        "Time(s)": 890
    },
    {
        "Altitude(m)": 557559.1698436871,
        "Argument of Periapsis(deg)": 0.03137206315601132,
        "Eccentricity": 0.0,
        "Inclination(deg)": 53.0,
        "Latitude(deg)": 42.823928859610625,
        "Longitude(deg)": -147.76846802273184,
        "Mean Anomaly(deg)": 121.86930832010438,
        "RAAN(deg)": 179.95331069302745,
        "Satellite Name": "Starlink Shell 1 796",
        "Satellite Number": 796,
        "Semi-Major Axis(m)": 6931778.249405717,
        "Time(s)": 900
    },
    {
        "Altitude(m)": 557479.2303698863,
        "Argument of Periapsis(deg)": 0.03172064163552255,
        "Eccentricity": 0.0,
        "Inclination(deg)": 53.0,
        "Latitude(deg)": 42.460862930616805,
        "Longitude(deg)": -147.11585811708545,
        "Mean Anomaly(deg)": 122.49613952366106,
        "RAAN(deg)": 179.95279192294996,
        "Satellite Name": "Starlink Shell 1 796",
        "Satellite Number": 796,
        "Semi-Major Axis(m)": 6931778.249405717,
        "Time(s)": 910
    },
    {
        "Altitude(m)": 557398.7148810449,
        "Argument of Periapsis(deg)": 0.0320692201150338,
        "Eccentricity": 0.0,
        "Inclination(deg)": 53.0,
        "Latitude(deg)": 42.09362179153458,
        "Longitude(deg)": -146.4712577756185,
        "Mean Anomaly(deg)": 123.12297072721779,
        "RAAN(deg)": 179.9522731528725,
        "Satellite Name": "Starlink Shell 1 796",
        "Satellite Number": 796,
        "Semi-Major Axis(m)": 6931778.249405717,
        "Time(s)": 920
    },
    {
        "Altitude(m)": 557317.67469348,
        "Argument of Periapsis(deg)": 0.032417798594545036,
        "Eccentricity": 0.0,
        "Inclination(deg)": 53.0,
        "Latitude(deg)": 41.72230488253256,
        "Longitude(deg)": -145.83456092125724,
        "Mean Anomaly(deg)": 123.7498019307745,
        "RAAN(deg)": 179.95175438279503,
        "Satellite Name": "Starlink Shell 1 796",
        "Satellite Number": 796,
        "Semi-Major Axis(m)": 6931778.249405717,
        "Time(s)": 930
    },
    {
        "Altitude(m)": 557236.1615995339,
        "Argument of Periapsis(deg)": 0.03276637707405627,
        "Eccentricity": 0.0,
        "Inclination(deg)": 53.0,
        "Latitude(deg)": 41.34700979049112,
        "Longitude(deg)": -145.20565927465066,
        "Mean Anomaly(deg)": 124.37663313433124,
        "RAAN(deg)": 179.95123561271757,
        "Satellite Name": "Starlink Shell 1 796",
        "Satellite Number": 796,
        "Semi-Major Axis(m)": 6931778.249405717,
        "Time(s)": 940
    }
]